CYGFM07                 
1 41890U 16078G   26089.21261101  .00035468  00000+0  49119-3 0  9995
2 41890  34.9463  33.7026 0006332 182.4536 177.6158 15.56018250516670
CYGFM03                 
1 41891U 16078H   26089.18364527  .00035128  00000+0  48670-3 0  9992
2 41891  34.9418  35.8618 0005210 170.4752 189.6071 15.56015476516643
FENGYUN 3D              
1 43010U 17072A   26089.21510131  .00000065  00000+0  52734-4 0  9999
2 43010  99.0058  62.2395 0000559 310.2439  49.8687 14.19720948433781
NOAA 20 (JPSS-1)        
1 43013U 17073A   26089.26906008  .00000077  00000+0  57233-4 0  9992
2 43013  98.7716  29.4545 0001925 110.2698 249.8685 14.19541375433275
GOES 17                 
1 43226U 18022A   26089.09577351 -.00000200  00000+0  00000+0 0  9993
2 43226   0.7352  86.9146 0001396 240.7714 164.7754  1.00272134 29638
FENGYUN 2H              
1 43491U 18050A   26089.12914031 -.00000141  00000+0  00000+0 0  9996
2 43491   2.8273  80.0106 0001661 173.0974  59.9581  1.00270253 28642
METOP-C                 
1 43689U 18087A   26089.23385917  .00000152  00000+0  89267-4 0  9990
2 43689  98.6722 150.2539 0001926  71.8173 288.3214 14.21503801383610
GEO-KOMPSAT-2A          
1 43823U 18100A   26088.99627978 -.00000362  00000+0  00000+0 0  9991
2 43823   0.0567  38.6591 0001738  14.7649 260.8828  1.00269842 26837
METEOR-M2 2             
1 44387U 19038A   26089.28734753  .00000591  00000+0  27559-3 0  9996
2 44387  98.9109  75.4266 0000343 190.7467 169.3704 14.24343558350061
ARKTIKA-M 1             
1 47719U 21016A   26086.24697042 -.00000098  00000+0  00000+0 0  9990
2 47719  63.2179  69.3783 7253959 269.5617  15.0995  2.00616454 37142
FENGYUN 3E              
1 49008U 21062A   26089.27852507  .00000405  00000+0  21163-3 0  9997
2 49008  98.7516  93.5634 0001282 359.1136   1.0037 14.19897563245386
GOES 18                 
1 51850U 22021A   26089.08632681  .00000079  00000+0  00000+0 0  9999
2 51850   0.0532  33.7855 0000431  25.8703  21.8820  1.00271444  5790
NOAA 21 (JPSS-2)        
1 54234U 22150A   26089.23305229  .00000107  00000+0  71544-4 0  9991
2 54234  98.7578  29.2664 0002736  70.8702 289.2770 14.19557583175348
METEOSAT-12 (MTG-I1)    
1 54743U 22170C   26089.11345356 -.00000024  00000+0  00000+0 0  9993
2 54743   0.7335  25.6582 0001802 292.1156 270.2220  1.00273145 12188
TIANMU-1 03             
1 55973U 23039A   26089.28669943  .00021724  00000+0  46290-3 0  9997
2 55973  97.5193 260.3167 0003350  44.5830 315.5687 15.44940630168641
TIANMU-1 04             
1 55974U 23039B   26089.30450766  .00026624  00000+0  55784-3 0  9994
2 55974  97.5128 259.4898 0003848  36.0443 324.1064 15.45393713168659
TIANMU-1 05             
1 55975U 23039C   26089.26408983  .00022308  00000+0  47623-3 0  9992
2 55975  97.5172 259.9369 0003580  63.4069 296.7545 15.44880043168629
TIANMU-1 06             
1 55976U 23039D   26089.30398527  .00022882  00000+0  47990-3 0  9994
2 55976  97.5184 260.5375 0003732  56.4012 303.7592 15.45397317168659
FENGYUN 3G              
1 56232U 23055A   26089.22940146  .00039149  00000+0  61683-3 0  9998
2 56232  49.9943  33.1662 0004641  20.5446 339.5707 15.53114265167736
METEOR-M2 3             
1 57166U 23091A   26089.26402220  .00000014  00000+0  24817-4 0  9993
2 57166  98.6170 145.8267 0004725  52.0748 308.0857 14.24039778143289
TIANMU-1 07             
1 57399U 23101A   26089.19739833  .00009399  00000+0  33332-3 0  9994
2 57399  97.2688 141.6857 0004618  92.4700 267.7070 15.29278032149572
TIANMU-1 08             
1 57400U 23101B   26085.76300744  .00000258  00000+0  11605-4 0  9996
2 57400  97.2683 138.1078 0005815  81.6822 278.5077 15.29307245149049
TIANMU-1 09             
1 57401U 23101C   26089.21423499  .00009946  00000+0  35232-3 0  9998
2 57401  97.2635 140.9415 0005089  91.4553 268.7271 15.29295917149573
TIANMU-1 10             
1 57402U 23101D   26089.18175873  .00010024  00000+0  35432-3 0  9996
2 57402  97.2713 141.8769 0006440  80.1853 280.0114 15.29357643149560
FENGYUN 3F              
1 57490U 23111A   26089.26409479  .00000085  00000+0  60271-4 0  9991
2 57490  98.6886 160.7266 0000878  81.9292 278.1984 14.19924271137666
ARKTIKA-M 2             
1 58584U 23198A   26082.52027795  .00000173  00000+0  00000+0 0  9997
2 58584  63.2220 163.8934 6881218 267.7008  18.8555  2.00606565 16600
TIANMU-1 11             
1 58645U 23205A   26089.26461475  .00008401  00000+0  32775-3 0  9999
2 58645  97.3520 112.0828 0007106 285.9014  74.1442 15.26153331125483
TIANMU-1 12             
1 58646U 23205B   26089.29798116  .00008211  00000+0  32111-3 0  9991
2 58646  97.3509 111.8892 0005378 263.5731  96.4895 15.26088103125478
TIANMU-1 13             
1 58647U 23205C   26089.26262466  .00008637  00000+0  33706-3 0  9996
2 58647  97.3536 112.1024 0005904 239.6808 120.3847 15.26138742125462
TIANMU-1 14             
1 58648U 23205D   26089.31309902  .00008114  00000+0  31704-3 0  9996
2 58648  97.3471 111.4022 0006559 245.7459 114.3094 15.26113874125475
TIANMU-1 19             
1 58660U 23208A   26089.26536022  .00013620  00000+0  46735-3 0  9990
2 58660  97.4403 205.2826 0004258 221.8416 138.2499 15.30265485125252
TIANMU-1 20             
1 58661U 23208B   26089.29908142  .00012857  00000+0  42536-3 0  9996
2 58661  97.4343 205.8707 0006133 236.5941 123.4714 15.31452666125346
TIANMU-1 21             
1 58662U 23208C   26089.27011961  .00015773  00000+0  48829-3 0  9990
2 58662  97.4400 208.1958 0006233 230.6024 129.4667 15.33535632125466
TIANMU-1 22             
1 58663U 23208D   26089.28834861  .00011794  00000+0  41041-3 0  9992
2 58663  97.4399 205.3028 0002489 248.3976 111.6999 15.29849883125262
TIANMU-1 15             
1 58700U 24004A   26089.24512814  .00008613  00000+0  33631-3 0  9998
2 58700  97.4675 275.4614 0005628 264.9414  95.1182 15.26128655123733
TIANMU-1 16             
1 58701U 24004B   26089.29370431  .00008773  00000+0  34216-3 0  9998
2 58701  97.4619 274.8184 0004057 268.3477  91.7296 15.26166923123748
TIANMU-1 17             
1 58702U 24004C   26089.27556462  .00009210  00000+0  35871-3 0  9992
2 58702  97.4649 275.2635 0003268 269.5184  90.5679 15.26201067123739
TIANMU-1 18             
1 58703U 24004D   26089.26149685  .00008929  00000+0  34852-3 0  9991
2 58703  97.4666 275.4640 0002653 267.3256  92.7678 15.26139887123733
INSAT-3DS               
1 58990U 24033A   26089.12966031 -.00000173  00000+0  00000+0 0  9996
2 58990   0.0212 121.1156 0002071 247.5455 307.6092  1.00271562 46277
METEOR-M2 4             
1 59051U 24039A   26089.25948954  .00000030  00000+0  33223-4 0  9998
2 59051  98.6941  49.5822 0007883  44.6227 315.5584 14.22420366108044
GOES 19                 
1 60133U 24119A   26089.24010731 -.00000266  00000+0  00000+0 0  9996
2 60133   0.0489  40.4599 0000753   0.2135 158.1816  1.00273059  6174
FENGYUN 3H              
1 65815U 25219A   26089.26015365  .00000090  00000+0  62769-4 0  9999
2 65815  98.6711  31.5886 0000816  63.0327 297.0933 14.19937957 26181
OSCAR 7 (AO-7)          
1 07530U 74089B   26089.29453431 -.00000021  00000+0  15731-3 0  9992
2 07530 101.9956 101.7065 0011871 281.9238 102.4421 12.53696812350633
PHASE 3B (AO-10)        
1 14129U 83058B   26084.35916296 -.00000351  00000+0  00000+0 0  9990
2 14129  25.9114 233.6020 6040998  92.4738 333.4977  2.05874335293766
UOSAT 2 (UO-11)         
1 14781U 84021B   26089.14862242  .00001918  00000+0  20166-3 0  9996
2 14781  97.7982  55.6535 0009204  86.0465 274.1806 14.90577722245359
LUSAT (LO-19)           
1 20442U 90005G   26088.99388745  .00000199  00000+0  87826-4 0  9996
2 20442  98.8918 108.5949 0012667  79.7596 280.5015 14.34096523891048
EYESAT A (AO-27)        
1 22825U 93061C   26089.19506375  .00000145  00000+0  72220-4 0  9995
2 22825  98.6941 156.6165 0007835 339.5665  20.5203 14.30919893695704
ITAMSAT (IO-26)         
1 22826U 93061D   26089.19794911  .00000162  00000+0  77929-4 0  9991
2 22826  98.6889 156.5290 0008067 321.3829  38.6776 14.31344620696014
RADIO ROSTO (RS15)      
1 23439U 94085A   26089.18270174 -.00000038  00000+0  14021-3 0  9994
2 23439  64.8154  70.9855 0153441  18.2134 342.4204 11.27583792286990
JAS-2 (FO-29)           
1 24278U 96046B   26089.19986892 -.00000004  00000+0  34847-4 0  9999
2 24278  98.5347 308.8421 0349025 301.5004  55.2471 13.53270020462484
TECHSAT 1B (GO-32)      
1 25397U 98043D   26088.97033966  .00000116  00000+0  70307-4 0  9995
2 25397  99.0048  79.7430 0002342  86.6269 273.5177 14.24411587440058
ISS (ZARYA)             
1 25544U 98067A   26089.16515940  .00012299  00000+0  23377-3 0  9993
2 25544  51.6344 331.1363 0006182 249.8595 110.1729 15.48649503559504
PCSAT (NO-44)           
1 26931U 01043C   26089.23315268  .00000213  00000+0  11040-3 0  9998
2 26931  67.0490  88.4785 0006889 264.6431  95.3885 14.31922344279140
SAUDISAT 1C (SO-50)     
1 27607U 02058C   26089.18737071  .00001862  00000+0  23648-3 0  9998
2 27607  64.5539  13.3750 0075447 276.8617  82.3910 14.82862917252740
CUTE-1 (CO-55)          
1 27844U 03031E   26089.28784510  .00000433  00000+0  20624-3 0  9998
2 27844  98.6772  98.8315 0010573  58.8595 301.3620 14.24283208180442
CUBESAT XI-IV (CO-57)   
1 27848U 03031J   26088.95577339  .00000364  00000+0  17891-3 0  9999
2 27848  98.6805  98.2801 0010599  76.1126 284.1231 14.23575477180108
MOZHAETS 4 (RS22)       
1 27939U 03042A   26089.31125148  .00001634  00000+0  26070-3 0  9990
2 27939  98.3456 271.4485 0011738 153.4152 330.4649 14.73310899203930
CUBESAT XI-V            
1 28895U 05043F   26088.96759361  .00002504  00000+0  40282-3 0  9993
2 28895  98.2870 242.9806 0015386  97.3603 262.9353 14.72402911 90099
CUTE-1.7+APD II (CO-65) 
1 32785U 08021C   26089.14377200  .00008471  00000+0  54456-3 0  9991
2 32785  97.8230  68.9898 0007461 305.3666  54.6864 15.08653285973275
